COMMENT,ORIGINATOR,NORAD_CAT_ID,OBJECT_NAME,OBJECT_TYPE,CLASSIFICATION_TYPE,INTLDES,EPOCH,EPOCH_MICROSECONDS,MEAN_MOTION,ECCENTRICITY,INCLINATION,RA_OF_ASC_NODE,ARG_OF_PERICENTER,MEAN_ANOMALY,EPHEMERIS_TYPE,ELEMENT_SET_NO,REV_AT_EPOCH,BSTAR,MEAN_MOTION_DOT,MEAN_MOTION_DDOT,FILE,TLE_LINE0,TLE_LINE1,TLE_LINE2,OBJECT_ID,OBJECT_NUMBER,SEMIMAJOR_AXIS,PERIOD,APOGEE,PERIGEE,DECAYED,date
GENERATED VIA SPACETRACK.ORG API,18 SPCS,48895,SPACEBEE-108,PAYLOAD,U,21059S,2023/2/22 8:57,437632,15.23239152,0.0008408,97.5807,188.3837,314.2021,45.8524,0,999,9186,0.0011186,0.00026513,0,3824148,0 SPACEBEE-108,1 48895U 21059S   23053.37356988  .00026513  00000-0  11186-2 0  9999,2 48895  97.5807 188.3837 0008408 314.2021  45.8524 15.23239152 91868,2021-059S,48895,6874.215,94.535,501.86,490.3,0,2023/4/26
GENERATED VIA SPACETRACK.ORG API,18 SPCS,48895,SPACEBEE-108,PAYLOAD,U,21059S,2023/2/22 21:34,922048,15.23268783,0.000838,97.581,188.914,312.2996,47.7529,0,999,9194,0.0011342,0.00026909,0,3825529,0 SPACEBEE-108,1 48895U 21059S   23053.89909632  .00026909  00000-0  11342-2 0  9999,2 48895  97.5810 188.9140 0008380 312.2996  47.7529 15.23268783 91940,2021-059S,48895,6874.126,94.534,501.751,490.23,0,2023/4/27
GENERATED VIA SPACETRACK.ORG API,18 SPCS,48895,SPACEBEE-108,PAYLOAD,U,21059S,2023/2/23 8:36,962752,15.23297863,0.0008378,97.5809,189.3784,310.759,49.2918,0,999,9201,0.0013157,0.00031272,0,3828819,0 SPACEBEE-108,1 48895U 21059S   23054.35892318  .00031272  00000-0  13157-2 0  9998,2 48895  97.5809 189.3784 0008378 310.7590  49.2918 15.23297863 92016,2021-059S,48895,6874.038,94.532,501.662,490.144,0,2023/4/28
GENERATED VIA SPACETRACK.ORG API,18 SPCS,48895,SPACEBEE-108,PAYLOAD,U,21059S,2023/2/23 8:36,962752,15.23297863,0.0008378,97.5809,189.3784,310.759,49.2918,0,999,9201,0.0013157,0.00031272,0,3829176,0 SPACEBEE-108,1 48895U 21059S   23054.35892318  .00031272  00000-0  13157-2 0  9998,2 48895  97.5809 189.3784 0008378 310.7590  49.2918 15.23297863 92016,2021-059S,48895,6874.038,94.532,501.662,490.144,0,2023/4/29
GENERATED VIA SPACETRACK.ORG API,18 SPCS,48895,SPACEBEE-108,PAYLOAD,U,21059S,2023/2/23 19:38,353728,15.23321651,0.0008377,97.5808,189.8426,308.5386,51.5099,0,999,9208,0.0011764,0.0002796,0,3830532,0 SPACEBEE-108,1 48895U 21059S   23054.81874252  .00027960  00000-0  11764-2 0  9997,2 48895  97.5808 189.8426 0008377 308.5386  51.5099 15.23321651 92086,2021-059S,48895,6873.967,94.53,501.59,490.073,0,2023/4/30
GENERATED VIA SPACETRACK.ORG API,18 SPCS,48895,SPACEBEE-108,PAYLOAD,U,21059S,2023/2/24 8:15,270336,15.23354716,0.0008385,97.5807,190.3737,306.6996,53.347,0,999,9216,0.001243,0.00029583,0,3832867,0 SPACEBEE-108,1 48895U 21059S   23055.34423924  .00029583  00000-0  12430-2 0  9996,2 48895  97.5807 190.3737 0008385 306.6996  53.3470 15.23354716 92162,2021-059S,48895,6873.867,94.528,501.496,489.969,0,
GENERATED VIA SPACETRACK.ORG API,18 SPCS,48895,SPACEBEE-108,PAYLOAD,U,21059S,2023/2/24 22:26,608896,15.23381676,0.0008405,97.5805,190.9704,304.2634,55.7806,0,999,9225,0.0009576,0.00022771,0,3835293,0 SPACEBEE-108,1 48895U 21059S   23055.93541214  .00022771  00000-0  95760-3 0  9994,2 48895  97.5805 190.9704 0008405 304.2634  55.7806 15.23381676 92250,2021-059S,48895,6873.786,94.527,501.429,489.874,0,
GENERATED VIA SPACETRACK.ORG API,18 SPCS,48895,SPACEBEE-108,PAYLOAD,U,21059S,2023/2/25 14:12,75648,15.23415278,0.0008398,97.5804,191.6338,301.9901,58.0519,0,999,9235,0.0010675,0.00025427,0,3837605,0 SPACEBEE-108,1 48895U 21059S   23056.59225782  .00025427  00000-0  10675-2 0  9998,2 48895  97.5804 191.6338 0008398 301.9901  58.0519 15.23415278 92356,2021-059S,48895,6873.685,94.524,501.323,489.778,0,
GENERATED VIA SPACETRACK.ORG API,18 SPCS,48895,SPACEBEE-108,PAYLOAD,U,21059S,2023/2/25 20:31,322624,15.2343123,0.0008465,97.5804,191.8991,300.9443,59.0961,0,999,9239,0.0011995,0.00028607,0,3839003,0 SPACEBEE-108,1 48895U 21059S   23056.85499216  .00028607  00000-0  11995-2 0  9991,2 48895  97.5804 191.8991 0008465 300.9443  59.0961 15.23431230 92390,2021-059S,48895,6873.637,94.523,501.321,489.684,0,
GENERATED VIA SPACETRACK.ORG API,18 SPCS,48895,SPACEBEE-108,PAYLOAD,U,21059S,2023/2/26 2:49,338912,15.234454,0.0008462,97.5804,192.1647,300.2486,59.7913,0,999,9243,0.0012664,0.00030225,0,3839301,0 SPACEBEE-108,1 48895U 21059S   23057.11772383  .00030225  00000-0  12664-2 0  9993,2 48895  97.5804 192.1647 0008462 300.2486  59.7913 15.23445400 92432,2021-059S,48895,6873.595,94.523,501.276,489.643,0,
GENERATED VIA SPACETRACK.ORG API,18 SPCS,48895,SPACEBEE-108,PAYLOAD,U,21059S,2023/2/26 7:33,134048,15.23460455,0.0008385,97.5805,192.3641,299.5979,60.4421,0,999,9246,0.0013384,0.00031969,0,3841853,0 SPACEBEE-108,1 48895U 21059S   23057.31477007  .00031969  00000-0  13384-2 0  9996,2 48895  97.5805 192.3641 0008385 299.5979  60.4421 15.23460455 92463,2021-059S,48895,6873.549,94.522,501.178,489.651,0,
GENERATED VIA SPACETRACK.ORG API,18 SPCS,48895,SPACEBEE-108,PAYLOAD,U,21059S,2023/2/26 20:09,21824,15.23491229,0.0008321,97.5807,192.8945,297.5431,62.4959,0,999,9254,0.0012,0.00028669,0,3843368,0 SPACEBEE-108,1 48895U 21059S   23057.84022016  .00028669  00000-0  12000-2 0  9997,2 48895  97.5807 192.8945 0008321 297.5431  62.4959 15.23491229 92548,2021-059S,48895,6873.457,94.52,501.041,489.602,0,
GENERATED VIA SPACETRACK.ORG API,18 SPCS,48895,SPACEBEE-108,PAYLOAD,U,21059S,2023/2/27 8:46,789856,15.23536553,0.0008308,97.5805,193.4257,296.0505,63.9876,0,999,9262,0.0017461,0.00041879,0,3845151,0 SPACEBEE-108,1 48895U 21059S   23058.36565729  .00041879  00000-0  17461-2 0  9992,2 48895  97.5805 193.4257 0008308 296.0505  63.9876 15.23536553 92623,2021-059S,48895,6873.32,94.517,500.896,489.475,0,
GENERATED VIA SPACETRACK.ORG API,18 SPCS,48895,SPACEBEE-108,PAYLOAD,U,21059S,2023/2/27 8:46,789856,15.23536553,0.0008308,97.5805,193.4257,296.0505,63.9876,0,999,9262,0.0017461,0.00041879,0,3846396,0 SPACEBEE-108,1 48895U 21059S   23058.36565729  .00041879  00000-0  17461-2 0  9992,2 48895  97.5805 193.4257 0008308 296.0505  63.9876 15.23536553 92623,2021-059S,48895,6873.32,94.517,500.896,489.475,0,
GENERATED VIA SPACETRACK.ORG API,18 SPCS,48895,SPACEBEE-108,PAYLOAD,U,21059S,2023/2/28 8:25,692832,15.2362655,0.0008309,97.5802,194.4209,292.1157,67.9197,0,999,9277,0.001771,0.00042595,0,3847542,0 SPACEBEE-108,1 48895U 21059S   23059.35080663  .00042595  00000-0  17710-2 0  9994,2 48895  97.5802 194.4209 0008309 292.1157  67.9197 15.23626550 92772,2021-059S,48895,6873.05,94.511,500.626,489.204,0,
GENERATED VIA SPACETRACK.ORG API,18 SPCS,48895,SPACEBEE-108,PAYLOAD,U,21059S,2023/2/28 8:25,692832,15.2362655,0.0008309,97.5802,194.4209,292.1157,67.9197,0,999,9277,0.001771,0.00042595,0,3847727,0 SPACEBEE-108,1 48895U 21059S   23059.35080663  .00042595  00000-0  17710-2 0  9994,2 48895  97.5802 194.4209 0008309 292.1157  67.9197 15.23626550 92772,2021-059S,48895,6873.05,94.511,500.626,489.204,0,
GENERATED VIA SPACETRACK.ORG API,18 SPCS,48895,SPACEBEE-108,PAYLOAD,U,21059S,2023/2/28 21:01,592736,15.2365659,0.0008362,97.5802,194.9518,290.0186,70.015,0,999,9285,0.0011444,0.00027467,0,3847656,0 SPACEBEE-108,1 48895U 21059S   23059.87619899  .00027467  00000-0  11444-2 0  9999,2 48895  97.5802 194.9518 0008362 290.0186  70.0150 15.23656590 92858,2021-059S,48895,6872.959,94.509,500.572,489.077,0,
GENERATED VIA SPACETRACK.ORG API,18 SPCS,48895,SPACEBEE-108,PAYLOAD,U,21059S,2023/2/28 21:01,592736,15.2365659,0.0008362,97.5802,194.9518,290.0186,70.015,0,999,9285,0.0011444,0.00027467,0,3848027,0 SPACEBEE-108,1 48895U 21059S   23059.87619899  .00027467  00000-0  11444-2 0  9999,2 48895  97.5802 194.9518 0008362 290.0186  70.0150 15.23656590 92858,2021-059S,48895,6872.959,94.509,500.572,489.077,0,
GENERATED VIA SPACETRACK.ORG API,18 SPCS,48895,SPACEBEE-108,PAYLOAD,U,21059S,2023/3/1 14:21,534560,15.23705944,0.0008395,97.5801,195.6818,287.5732,72.4587,0,999,9296,0.0012947,0.00031145,0,3848610,0 SPACEBEE-108,1 48895U 21059S   23060.59859415  .00031145  00000-0  12947-2 0  9997,2 48895  97.5801 195.6818 0008395 287.5732  72.4587 15.23705944 92962,2021-059S,48895,6872.811,94.506,500.446,488.906,0,
GENERATED VIA SPACETRACK.ORG API,18 SPCS,48895,SPACEBEE-108,PAYLOAD,U,21059S,2023/3/1 20:40,415744,15.23721824,0.0008412,97.5802,195.9472,286.6702,73.3611,0,999,9300,0.0011895,0.00028613,0,3848834,0 SPACEBEE-108,1 48895U 21059S   23060.86127796  .00028613  00000-0  11895-2 0  9994,2 48895  97.5802 195.9472 0008412 286.6702  73.3611 15.23721824 93008,2021-059S,48895,6872.763,94.505,500.41,488.847,0,
GENERATED VIA SPACETRACK.ORG API,18 SPCS,48895,SPACEBEE-108,PAYLOAD,U,21059S,2023/3/2 7:42,574720,15.2375375,0.0008433,97.5803,196.4119,285.0875,74.9428,0,999,9307,0.0013248,0.0003192,0,3849487,0 SPACEBEE-108,1 48895U 21059S   23061.32096730  .00031920  00000-0  13248-2 0  9998,2 48895  97.5803 196.4119 0008433 285.0875  74.9428 15.23753750 93073,2021-059S,48895,6872.667,94.503,500.328,488.737,0,
GENERATED VIA SPACETRACK.ORG API,18 SPCS,48895,SPACEBEE-108,PAYLOAD,U,21059S,2023/3/3 7:20,911328,15.23833507,0.0008376,97.5802,197.4074,281.7612,78.2685,0,999,9322,0.0018217,0.00044095,0,3849665,0 SPACEBEE-108,1 48895U 21059S   23062.30598277  .00044095  00000-0  18217-2 0  9998,2 48895  97.5802 197.4074 0008376 281.7612  78.2685 15.23833507 93229,2021-059S,48895,6872.427,94.499,500.049,488.536,0,
GENERATED VIA SPACETRACK.ORG API,18 SPCS,48895,SPACEBEE-108,PAYLOAD,U,21059S,2023/3/3 8:55,439904,15.23839135,0.0008363,97.5803,197.4738,281.5672,78.4626,0,999,9323,0.0018153,0.00043947,0,3850163,0 SPACEBEE-108,1 48895U 21059S   23062.37164861  .00043947  00000-0  18153-2 0  9997,2 48895  97.5803 197.4738 0008363 281.5672  78.4626 15.23839135 93238,2021-059S,48895,6872.411,94.498,500.023,488.528,0,
